{"fetched_at":"2026-03-30T06:02:59Z","count":15439,"tles":[{"name":"STARLINK-31776","line1":"1 59603U 24080C   26087.87412351  .00006357  00000+0  23997-3 0  9994","line2":"2 59603  43.0018 293.2851 0000496 270.9605  89.1190 15.27627505107421","category":"Starlink"}]}