{
  "norad_id": 59603,
  "name": "STARLINK-31776",
  "history": [
    {
      "epoch": "2026-03-28T20:58:44.271264",
      "apogee_km": 483.2476407142349,
      "perigee_km": 482.56606461791216,
      "latitude_deg": 34.44352707554435,
      "longitude_deg": -135.7841430399567,
      "semi_major_axis_km": 6861.043852666074,
      "eccentricity": 4.967e-05,
      "inclination_deg": 43.0018,
      "raan_deg": 293.2851,
      "arg_perigee_deg": 270.9605,
      "mean_anomaly_deg": 89.119,
      "mean_motion_rev_day": 15.27627505
    }
  ]
}